[{"OBJECT_NAME":"STARLINK-5791","OBJECT_ID":"2023-090AX","EPOCH":"2025-07-30T04:34:59.820960","MEAN_MOTION":15.0253798,"ECCENTRICITY":0.0001443,"INCLINATION":43.0052,"RA_OF_ASC_NODE":30.6319,"ARG_OF_PERICENTER":271.3914,"MEAN_ANOMALY":88.6763,"EPHEMERIS_TYPE":0,"CLASSIFICATION_TYPE":"U","NORAD_CAT_ID":57146,"ELEMENT_SET_NO":999,"REV_AT_EPOCH":11595,"BSTAR":6.2054e-5,"MEAN_MOTION_DOT":6.35e-6,"MEAN_MOTION_DDOT":0},{"OBJECT_NAME":"STARLINK-5765","OBJECT_ID":"2023-090AY","EPOCH":"2025-07-29T20:20:22.774848","MEAN_MOTION":15.0253547,"ECCENTRICITY":0.0001114,"INCLINATION":43.0051,"RA_OF_ASC_NODE":32.3529,"ARG_OF_PERICENTER":267.2114,"MEAN_ANOMALY":92.8601,"EPHEMERIS_TYPE":0,"CLASSIFICATION_TYPE":"U","NORAD_CAT_ID":57147,"ELEMENT_SET_NO":999,"REV_AT_EPOCH":11704,"BSTAR":4.1529e-6,"MEAN_MOTION_DOT":-1.48e-6,"MEAN_MOTION_DDOT":0},{"OBJECT_NAME":"STARLINK-5788","OBJECT_ID":"2023-090AZ","EPOCH":"2025-07-29T20:10:47.237664","MEAN_MOTION":15.02535457,"ECCENTRICITY":0.000119,"INCLINATION":43.0044,"RA_OF_ASC_NODE":32.3085,"ARG_OF_PERICENTER":261.3693,"MEAN_ANOMALY":98.7015,"EPHEMERIS_TYPE":0,"CLASSIFICATION_TYPE":"U","NORAD_CAT_ID":57148,"ELEMENT_SET_NO":999,"REV_AT_EPOCH":11685,"BSTAR":3.7091e-5,"MEAN_MOTION_DOT":2.97e-6,"MEAN_MOTION_DDOT":0},{"OBJECT_NAME":"STARLINK-5778","OBJECT_ID":"2023-090BA","EPOCH":"2025-07-29T17:28:50.233152","MEAN_MOTION":15.02535279,"ECCENTRICITY":0.0001398,"INCLINATION":43.0056,"RA_OF_ASC_NODE":7.1406,"ARG_OF_PERICENTER":269.1232,"MEAN_ANOMALY":90.945,"EPHEMERIS_TYPE":0,"CLASSIFICATION_TYPE":"U","NORAD_CAT_ID":57149,"ELEMENT_SET_NO":999,"REV_AT_EPOCH":11732,"BSTAR":3.3313e-5,"MEAN_MOTION_DOT":2.46e-6,"MEAN_MOTION_DDOT":0},{"OBJECT_NAME":"STARLINK-5780","OBJECT_ID":"2023-090BB","EPOCH":"2025-07-29T18:55:50.514240","MEAN_MOTION":15.02533226,"ECCENTRICITY":0.0001233,"INCLINATION":43.0047,"RA_OF_ASC_NODE":32.778,"ARG_OF_PERICENTER":273.7445,"MEAN_ANOMALY":86.3257,"EPHEMERIS_TYPE":0,"CLASSIFICATION_TYPE":"U","NORAD_CAT_ID":57150,"ELEMENT_SET_NO":999,"REV_AT_EPOCH":11703,"BSTAR":4.6433e-6,"MEAN_MOTION_DOT":-1.41e-6,"MEAN_MOTION_DDOT":0},{"OBJECT_NAME":"STARLINK-5776","OBJECT_ID":"2023-090BC","EPOCH":"2025-07-29T20:29:57.716736","MEAN_MOTION":15.02540243,"ECCENTRICITY":0.0001132,"INCLINATION":43.0044,"RA_OF_ASC_NODE":32.4047,"ARG_OF_PERICENTER":268.7299,"MEAN_ANOMALY":91.3414,"EPHEMERIS_TYPE":0,"CLASSIFICATION_TYPE":"U","NORAD_CAT_ID":57151,"ELEMENT_SET_NO":999,"REV_AT_EPOCH":11590,"BSTAR":6.7453e-5,"MEAN_MOTION_DOT":7.08e-6,"MEAN_MOTION_DDOT":0},{"OBJECT_NAME":"STARLINK-6164","OBJECT_ID":"2023-090BD","EPOCH":"2025-07-30T04:33:24.053472","MEAN_MOTION":15.02538264,"ECCENTRICITY":0.0001273,"INCLINATION":43.0036,"RA_OF_ASC_NODE":30.6283,"ARG_OF_PERICENTER":276.4229,"MEAN_ANOMALY":83.6468,"EPHEMERIS_TYPE":0,"CLASSIFICATION_TYPE":"U","NORAD_CAT_ID":57152,"ELEMENT_SET_NO":999,"REV_AT_EPOCH":11595,"BSTAR":2.6679e-5,"MEAN_MOTION_DOT":1.57e-6,"MEAN_MOTION_DDOT":0},{"OBJECT_NAME":"STARLINK-5879","OBJECT_ID":"2023-090BE","EPOCH":"2025-07-29T19:32:58.007328","MEAN_MOTION":15.02537098,"ECCENTRICITY":0.0001253,"INCLINATION":43.0043,"RA_OF_ASC_NODE":19.951,"ARG_OF_PERICENTER":272.7958,"MEAN_ANOMALY":87.2741,"EPHEMERIS_TYPE":0,"CLASSIFICATION_TYPE":"U","NORAD_CAT_ID":57153,"ELEMENT_SET_NO":999,"REV_AT_EPOCH":11668,"BSTAR":1.6031e-5,"MEAN_MOTION_DOT":1.3e-7,"MEAN_MOTION_DDOT":0},{"OBJECT_NAME":"STARLINK-6106","OBJECT_ID":"2023-090BF","EPOCH":"2025-07-30T04:20:36.878496","MEAN_MOTION":15.02536585,"ECCENTRICITY":0.0001193,"INCLINATION":43.0049,"RA_OF_ASC_NODE":30.5591,"ARG_OF_PERICENTER":279.5071,"MEAN_ANOMALY":80.5636,"EPHEMERIS_TYPE":0,"CLASSIFICATION_TYPE":"U","NORAD_CAT_ID":57154,"ELEMENT_SET_NO":999,"REV_AT_EPOCH":11595,"BSTAR":6.6164e-5,"MEAN_MOTION_DOT":6.9e-6,"MEAN_MOTION_DDOT":0},{"OBJECT_NAME":"STARLINK-6108","OBJECT_ID":"2023-090BG","EPOCH":"2025-07-29T20:01:11.892288","MEAN_MOTION":15.02534497,"ECCENTRICITY":0.0001233,"INCLINATION":43.0039,"RA_OF_ASC_NODE":32.257,"ARG_OF_PERICENTER":267.3136,"MEAN_ANOMALY":92.7565,"EPHEMERIS_TYPE":0,"CLASSIFICATION_TYPE":"U","NORAD_CAT_ID":57155,"ELEMENT_SET_NO":999,"REV_AT_EPOCH":11704,"BSTAR":4.3241e-5,"MEAN_MOTION_DOT":3.81e-6,"MEAN_MOTION_DDOT":0},{"OBJECT_NAME":"STARLINK-6137","OBJECT_ID":"2023-090BH","EPOCH":"2025-07-29T20:05:59.820288","MEAN_MOTION":15.02532292,"ECCENTRICITY":0.0001328,"INCLINATION":43.0046,"RA_OF_ASC_NODE":32.2812,"ARG_OF_PERICENTER":270.1697,"MEAN_ANOMALY":89.8994,"EPHEMERIS_TYPE":0,"CLASSIFICATION_TYPE":"U","NORAD_CAT_ID":57156,"ELEMENT_SET_NO":999,"REV_AT_EPOCH":11704,"BSTAR":4.4355e-5,"MEAN_MOTION_DOT":3.95e-6,"MEAN_MOTION_DDOT":0},{"OBJECT_NAME":"STARLINK-5525","OBJECT_ID":"2023-094A","EPOCH":"2025-07-29T23:27:58.603968","MEAN_MOTION":15.02535257,"ECCENTRICITY":4.43e-5,"INCLINATION":43.0032,"RA_OF_ASC_NODE":160.8872,"ARG_OF_PERICENTER":312.3821,"MEAN_ANOMALY":47.6983,"EPHEMERIS_TYPE":0,"CLASSIFICATION_TYPE":"U","NORAD_CAT_ID":57218,"ELEMENT_SET_NO":999,"REV_AT_EPOCH":11379,"BSTAR":5.9115e-5,"MEAN_MOTION_DOT":5.95e-6,"MEAN_MOTION_DDOT":0},{"OBJECT_NAME":"STARLINK-5520","OBJECT_ID":"2023-094B","EPOCH":"2025-07-29T13:48:48.894624","MEAN_MOTION":15.02533154,"ECCENTRICITY":8.66e-5,"INCLINATION":43.002,"RA_OF_ASC_NODE":163.0329,"ARG_OF_PERICENTER":280.3859,"MEAN_ANOMALY":79.6885,"EPHEMERIS_TYPE":0,"CLASSIFICATION_TYPE":"U","NORAD_CAT_ID":57219,"ELEMENT_SET_NO":999,"REV_AT_EPOCH":11355,"BSTAR":5.5736e-5,"MEAN_MOTION_DOT":5.49e-6,"MEAN_MOTION_DDOT":0},{"OBJECT_NAME":"STARLINK-5880","OBJECT_ID":"2023-094C","EPOCH":"2025-07-29T13:26:26.245536","MEAN_MOTION":15.02533545,"ECCENTRICITY":0.0001203,"INCLINATION":43.0023,"RA_OF_ASC_NODE":162.9131,"ARG_OF_PERICENTER":266.7847,"MEAN_ANOMALY":93.2857,"EPHEMERIS_TYPE":0,"CLASSIFICATION_TYPE":"U","NORAD_CAT_ID":57220,"ELEMENT_SET_NO":999,"REV_AT_EPOCH":11355,"BSTAR":2.589e-5,"MEAN_MOTION_DOT":1.46e-6,"MEAN_MOTION_DDOT":0},{"OBJECT_NAME":"STARLINK-5875","OBJECT_ID":"2023-094D","EPOCH":"2025-07-29T13:45:37.076256","MEAN_MOTION":15.02541377,"ECCENTRICITY":8.68e-5,"INCLINATION":43.003,"RA_OF_ASC_NODE":163.0156,"ARG_OF_PERICENTER":283.4198,"MEAN_ANOMALY":76.6547,"EPHEMERIS_TYPE":0,"CLASSIFICATION_TYPE":"U","NORAD_CAT_ID":57221,"ELEMENT_SET_NO":999,"REV_AT_EPOCH":11355,"BSTAR":-5.7679e-5,"MEAN_MOTION_DOT":-9.83e-6,"MEAN_MOTION_DDOT":0},{"OBJECT_NAME":"STARLINK-5870","OBJECT_ID":"2023-094E","EPOCH":"2025-07-29T05:37:23.558880","MEAN_MOTION":15.02547052,"ECCENTRICITY":0.0001027,"INCLINATION":43.003,"RA_OF_ASC_NODE":164.7706,"ARG_OF_PERICENTER":284.4268,"MEAN_ANOMALY":75.646,"EPHEMERIS_TYPE":0,"CLASSIFICATION_TYPE":"U","NORAD_CAT_ID":57222,"ELEMENT_SET_NO":999,"REV_AT_EPOCH":11413,"BSTAR":7.4432e-5,"MEAN_MOTION_DOT":8.02e-6,"MEAN_MOTION_DDOT":0},{"OBJECT_NAME":"STARLINK-5519","OBJECT_ID":"2023-094F","EPOCH":"2025-07-29T23:15:11.515392","MEAN_MOTION":15.02534073,"ECCENTRICITY":0.0001111,"INCLINATION":43.003,"RA_OF_ASC_NODE":160.8192,"ARG_OF_PERICENTER":274.3661,"MEAN_ANOMALY":85.7054,"EPHEMERIS_TYPE":0,"CLASSIFICATION_TYPE":"U","NORAD_CAT_ID":57223,"ELEMENT_SET_NO":999,"REV_AT_EPOCH":11379,"BSTAR":-2.9828e-5,"MEAN_MOTION_DOT":-6.06e-6,"MEAN_MOTION_DDOT":0}]
