STARLINK-5791           
1 57146U 23090AX  25211.19097015  .00000635  00000+0  62054-4 0  9994
2 57146  43.0052  30.6319 0001443 271.3914  88.6763 15.02537980115959
STARLINK-5765           
1 57147U 23090AY  25210.84748582 -.00000148  00000+0  41529-5 0  9993
2 57147  43.0051  32.3529 0001114 267.2114  92.8601 15.02535470117044
STARLINK-5788           
1 57148U 23090AZ  25210.84082451  .00000297  00000+0  37091-4 0  9992
2 57148  43.0044  32.3085 0001190 261.3693  98.7015 15.02535457116852
STARLINK-5778           
1 57149U 23090BA  25210.72835918  .00000246  00000+0  33313-4 0  9991
2 57149  43.0056   7.1406 0001398 269.1232  90.9450 15.02535279117320
STARLINK-5780           
1 57150U 23090BB  25210.78877910 -.00000141  00000+0  46433-5 0  9990
2 57150  43.0047  32.7780 0001233 273.7445  86.3257 15.02533226117038
STARLINK-5776           
1 57151U 23090BC  25210.85414024  .00000708  00000+0  67453-4 0  9994
2 57151  43.0044  32.4047 0001132 268.7299  91.3414 15.02540243115900
STARLINK-6164           
1 57152U 23090BD  25211.18986173  .00000157  00000+0  26679-4 0  9994
2 57152  43.0036  30.6283 0001273 276.4229  83.6468 15.02538264115957
STARLINK-5879           
1 57153U 23090BE  25210.81456027  .00000013  00000+0  16031-4 0  9996
2 57153  43.0043  19.9510 0001253 272.7958  87.2741 15.02537098116684
STARLINK-6106           
1 57154U 23090BF  25211.18098239  .00000690  00000+0  66164-4 0  9998
2 57154  43.0049  30.5591 0001193 279.5071  80.5636 15.02536585115951
STARLINK-6108           
1 57155U 23090BG  25210.83416542  .00000381  00000+0  43241-4 0  9999
2 57155  43.0039  32.2570 0001233 267.3136  92.7565 15.02534497117047
STARLINK-6137           
1 57156U 23090BH  25210.83749792  .00000395  00000+0  44355-4 0  9998
2 57156  43.0046  32.2812 0001328 270.1697  89.8994 15.02532292117048
STARLINK-5525           
1 57218U 23094A   25210.97776162  .00000595  00000+0  59115-4 0  9999
2 57218  43.0032 160.8872 0000443 312.3821  47.6983 15.02535257113793
STARLINK-5520           
1 57219U 23094B   25210.57556591  .00000549  00000+0  55736-4 0  9992
2 57219  43.0020 163.0329 0000866 280.3859  79.6885 15.02533154113551
STARLINK-5880           
1 57220U 23094C   25210.56002599  .00000146  00000+0  25890-4 0  9998
2 57220  43.0023 162.9131 0001203 266.7847  93.2857 15.02533545113551
STARLINK-5875           
1 57221U 23094D   25210.57334579 -.00000983  00000+0 -57679-4 0  9997
2 57221  43.0030 163.0156 0000868 283.4198  76.6547 15.02541377113553
STARLINK-5870           
1 57222U 23094E   25210.23430045  .00000802  00000+0  74432-4 0  9990
2 57222  43.0030 164.7706 0001027 284.4268  75.6460 15.02547052114134
STARLINK-5519           
1 57223U 23094F   25210.96888328 -.00000606  00000+0 -29828-4 0  9995
2 57223  43.0030 160.8192 0001111 274.3661  85.7054 15.02534073113791
